IRIDIUM 921             
1 24873U 97034E   24283.54381513  .00107074  00000+0  17256-2 0  9997
2 24873  86.3766 231.0067 0008701 115.5108 244.7054 15.52519955492837
IRIDIUM 26              
1 24903U 97043A   24283.56719566  .00002296  00000+0  77353-3 0  9991
2 24903  86.4002 215.7544 0002359  89.7392 270.4075 14.36674085420752
IRIDIUM 22              
1 24907U 97043E   24283.57251555  .00002013  00000+0  69302-3 0  9997
2 24907  86.3998 219.0766 0002467  85.4654 274.6825 14.35538300420810
DUMMY MASS 1            
1 24925U 97048A   24283.44124014  .00002258  00000+0  25233-3 0  9993
2 24925  86.3316 251.1606 0005235 336.6511  23.4475 14.86493559467873
DUMMY MASS 2            
1 24926U 97048B   24283.42918534  .00002198  00000+0  24701-3 0  9992
2 24926  86.3316 252.7294 0006504 346.9934  13.1122 14.86248760467650
IRIDIUM 29              
1 24944U 97051A   24283.46993354  .00002109  00000+0  72008-3 0  9998
2 24944  86.3931 248.9576 0002467  83.1997 276.9481 14.35983946417283
IRIDIUM 33              
1 24946U 97051C   24283.39699547  .00001653  00000+0  57892-3 0  9996
2 24946  86.3844 248.2348 0008276 160.5895 199.5617 14.34559018416782
IRIDIUM 28              
1 24948U 97051E   24283.46762345  .00001964  00000+0  65745-3 0  9994
2 24948  86.3940 246.6156 0002430  99.2685 260.8787 14.36934147417830
